start=new Date('2022-09-02T00:00:00.000Z').valueOf();
sats=[{"ELEMENT_SET_NO":"999","RCS_SIZE":"LARGE","ECCENTRICITY":"0.00017130","BSTAR":"-0.00033324000000","CLASSIFICATION_TYPE":"U","REV_AT_EPOCH":"130","SITE":"AFETR","TLE_LINE1":"1 51894U 22022AU  22244.91667824 -.00005588  00000-0 -33324-3 0  9998","ARG_OF_PERICENTER":"55.8416","DECAY_DATE":null,"OBJECT_NAME":"STARLINK-3595","MEAN_MOTION_DOT":"-0.00005588","OBJECT_ID":"2022-022AU","MEAN_ELEMENT_THEORY":"SGP4","FILE":"3554009","PERIAPSIS":"538.552","EPOCH":"2022-09-01T22:00:00.999936","INCLINATION":"53.2200","APOAPSIS":"540.922","EPHEMERIS_TYPE":"0","CENTER_NAME":"EARTH","PERIOD":"95.437","MEAN_MOTION":"15.08842853","MEAN_ANOMALY":"133.9893","SEMIMAJOR_AXIS":"6917.872","NORAD_CAT_ID":"51894","TLE_LINE2":"2 51894  53.2200   6.6895 0001713  55.8416 133.9893 15.08842853  1300","MEAN_MOTION_DDOT":"0.0000000000000","COUNTRY_CODE":"US","RA_OF_ASC_NODE":"6.6895","REF_FRAME":"TEME","GP_ID":"211505794","TIME_SYSTEM":"UTC","LAUNCH_DATE":"2022-03-03","OBJECT_TYPE":"PAYLOAD"},{"CENTER_NAME":"EARTH","EPHEMERIS_TYPE":"0","PERIOD":"95.438","INCLINATION":"53.2187","EPOCH":"2022-09-01T22:00:00.999936","APOAPSIS":"540.988","SEMIMAJOR_AXIS":"6917.878","NORAD_CAT_ID":"51895","MEAN_ANOMALY":"180.8280","MEAN_MOTION":"15.08840632","RA_OF_ASC_NODE":"6.6829","REF_FRAME":"TEME","COUNTRY_CODE":"US","TLE_LINE2":"2 51895  53.2187   6.6829 0001799  49.0367 180.8280 15.08840632  1300","MEAN_MOTION_DDOT":"0.0000000000000","OBJECT_TYPE":"PAYLOAD","GP_ID":"211504042","LAUNCH_DATE":"2022-03-03","TIME_SYSTEM":"UTC","ELEMENT_SET_NO":"999","ECCENTRICITY":"0.00017990","BSTAR":"-0.00050994000000","CLASSIFICATION_TYPE":"U","RCS_SIZE":"LARGE","OBJECT_NAME":"STARLINK-3594","ARG_OF_PERICENTER":"49.0367","TLE_LINE1":"1 51895U 22022AV  22244.91667824 -.00008395  00000-0 -50994-3 0  9990","SITE":"AFETR","REV_AT_EPOCH":"130","DECAY_DATE":null,"MEAN_MOTION_DOT":"-0.00008395","OBJECT_ID":"2022-022AV","PERIAPSIS":"538.499","FILE":"3554009","MEAN_ELEMENT_THEORY":"SGP4"},{"CLASSIFICATION_TYPE":"U","ECCENTRICITY":"0.00017550","BSTAR":"-0.00049141000000","RCS_SIZE":"LARGE","ELEMENT_SET_NO":"999","MEAN_ELEMENT_THEORY":"SGP4","FILE":"3554009","PERIAPSIS":"538.502","MEAN_MOTION_DOT":"-0.00008103","OBJECT_ID":"2022-022AW","OBJECT_NAME":"STARLINK-3593","DECAY_DATE":null,"SITE":"AFETR","REV_AT_EPOCH":"130","TLE_LINE1":"1 51896U 22022AW  22244.91667824 -.00008103  00000-0 -49141-3 0  9990","ARG_OF_PERICENTER":"52.2002","NORAD_CAT_ID":"51896","SEMIMAJOR_AXIS":"6917.851","MEAN_MOTION":"15.08849536","MEAN_ANOMALY":"172.4366","PERIOD":"95.437","EPHEMERIS_TYPE":"0","CENTER_NAME":"EARTH","APOAPSIS":"540.930","INCLINATION":"53.2183","EPOCH":"2022-09-01T22:00:00.999936","OBJECT_TYPE":"PAYLOAD","TIME_SYSTEM":"UTC","LAUNCH_DATE":"2022-03-03","GP_ID":"211504292","COUNTRY_CODE":"US","RA_OF_ASC_NODE":"6.6805","REF_FRAME":"TEME","MEAN_MOTION_DDOT":"0.0000000000000","TLE_LINE2":"2 51896  53.2183   6.6805 0001755  52.2002 172.4366 15.08849536  1309"},{"OBJECT_NAME":"STARLINK-3598","DECAY_DATE":null,"TLE_LINE1":"1 51897U 22022AX  22244.91667824 -.00021131  00000-0 -13132-2 0  9997","ARG_OF_PERICENTER":"69.8971","REV_AT_EPOCH":"130","SITE":"AFETR","PERIAPSIS":"538.712","MEAN_ELEMENT_THEORY":"SGP4","FILE":"3554009","MEAN_MOTION_DOT":"-0.00021131","OBJECT_ID":"2022-022AX","ELEMENT_SET_NO":"999","CLASSIFICATION_TYPE":"U","BSTAR":"-0.00131320000000","ECCENTRICITY":"0.00014620","RCS_SIZE":"LARGE","REF_FRAME":"TEME","RA_OF_ASC_NODE":"6.6872","COUNTRY_CODE":"US","MEAN_MOTION_DDOT":"0.0000000000000","TLE_LINE2":"2 51897  53.2194   6.6872 0001462  69.8971 179.9521 15.08847176  1303","OBJECT_TYPE":"PAYLOAD","LAUNCH_DATE":"2022-03-03","TIME_SYSTEM":"UTC","GP_ID":"211505544","PERIOD":"95.437","CENTER_NAME":"EARTH","EPHEMERIS_TYPE":"0","APOAPSIS":"540.735","INCLINATION":"53.2194","EPOCH":"2022-09-01T22:00:00.999936","NORAD_CAT_ID":"51897","SEMIMAJOR_AXIS":"6917.858","MEAN_ANOMALY":"179.9521","MEAN_MOTION":"15.08847176"},{"RA_OF_ASC_NODE":"6.6859","REF_FRAME":"TEME","COUNTRY_CODE":"US","MEAN_MOTION_DDOT":"0.0000000000000","TLE_LINE2":"2 51898  53.2190   6.6859 0001494  68.1248 201.6792 15.08857979  1304","OBJECT_TYPE":"PAYLOAD","LAUNCH_DATE":"2022-03-03","TIME_SYSTEM":"UTC","GP_ID":"211505294","PERIOD":"95.436","CENTER_NAME":"EARTH","EPHEMERIS_TYPE":"0","APOAPSIS":"540.724","EPOCH":"2022-09-01T22:00:00.999936","INCLINATION":"53.2190","NORAD_CAT_ID":"51898","SEMIMAJOR_AXIS":"6917.825","MEAN_ANOMALY":"201.6792","MEAN_MOTION":"15.08857979","OBJECT_NAME":"STARLINK-3597","DECAY_DATE":null,"ARG_OF_PERICENTER":"68.1248","TLE_LINE1":"1 51898U 22022AY  22244.91667824 -.00012113  00000-0 -74390-3 0  9992","REV_AT_EPOCH":"130","SITE":"AFETR","PERIAPSIS":"538.657","FILE":"3554009","MEAN_ELEMENT_THEORY":"SGP4","OBJECT_ID":"2022-022AY","MEAN_MOTION_DOT":"-0.00012113","ELEMENT_SET_NO":"999","CLASSIFICATION_TYPE":"U","ECCENTRICITY":"0.00014940","BSTAR":"-0.00074390000000","RCS_SIZE":"LARGE"},{"ELEMENT_SET_NO":"999","CLASSIFICATION_TYPE":"U","ECCENTRICITY":"0.00018050","BSTAR":"0.00252660000000","RCS_SIZE":"LARGE","OBJECT_NAME":"STARLINK-3700","DECAY_DATE":null,"REV_AT_EPOCH":"130","SITE":"AFETR","TLE_LINE1":"1 51956U 22025A   22244.91667824  .00040123  00000-0  25266-2 0  9997","ARG_OF_PERICENTER":"50.4268","MEAN_ELEMENT_THEORY":"SGP4","FILE":"3554009","PERIAPSIS":"538.578","MEAN_MOTION_DOT":"0.00040123","OBJECT_ID":"2022-025A","PERIOD":"95.439","EPHEMERIS_TYPE":"0","CENTER_NAME":"EARTH","APOAPSIS":"541.076","EPOCH":"2022-09-01T22:00:00.999936","INCLINATION":"53.2165","NORAD_CAT_ID":"51956","SEMIMAJOR_AXIS":"6917.962","MEAN_MOTION":"15.08813347","MEAN_ANOMALY":"94.4147","COUNTRY_CODE":"US","RA_OF_ASC_NODE":"36.6933","REF_FRAME":"TEME","MEAN_MOTION_DDOT":"0.0000000000000","TLE_LINE2":"2 51956  53.2165  36.6933 0001805  50.4268  94.4147 15.08813347  1302","OBJECT_TYPE":"PAYLOAD","TIME_SYSTEM":"UTC","LAUNCH_DATE":"2022-03-09","GP_ID":"211505547"},{"PERIAPSIS":"538.763","FILE":"3554009","MEAN_ELEMENT_THEORY":"SGP4","MEAN_MOTION_DOT":"0.00035446","OBJECT_ID":"2022-025B","DECAY_DATE":null,"TLE_LINE1":"1 51957U 22025B   22244.91667824  .00035446  00000-0  22345-2 0  9995","ARG_OF_PERICENTER":"57.3668","REV_AT_EPOCH":"130","SITE":"AFETR","OBJECT_NAME":"STARLINK-3694","RCS_SIZE":"LARGE","CLASSIFICATION_TYPE":"U","BSTAR":"0.00223450000000","ECCENTRICITY":"0.00014520","ELEMENT_SET_NO":"999","LAUNCH_DATE":"2022-03-09","TIME_SYSTEM":"UTC","GP_ID":"211505297","OBJECT_TYPE":"PAYLOAD","MEAN_MOTION_DDOT":"0.0000000000000","TLE_LINE2":"2 51957  53.2170  36.6876 0001452  57.3668 187.4747 15.08832630  1308","REF_FRAME":"TEME","RA_OF_ASC_NODE":"36.6876","COUNTRY_CODE":"US","MEAN_ANOMALY":"187.4747","MEAN_MOTION":"15.08832630","NORAD_CAT_ID":"51957","SEMIMAJOR_AXIS":"6917.903","APOAPSIS":"540.772","INCLINATION":"53.2170","EPOCH":"2022-09-01T22:00:00.999936","PERIOD":"95.438","CENTER_NAME":"EARTH","EPHEMERIS_TYPE":"0"},{"CLASSIFICATION_TYPE":"U","ECCENTRICITY":"0.00015780","BSTAR":"0.00254200000000","RCS_SIZE":"LARGE","ELEMENT_SET_NO":"999","FILE":"3554009","MEAN_ELEMENT_THEORY":"SGP4","PERIAPSIS":"538.709","MEAN_MOTION_DOT":"0.00040380","OBJECT_ID":"2022-025C","OBJECT_NAME":"STARLINK-3692","DECAY_DATE":null,"REV_AT_EPOCH":"130","SITE":"AFETR","ARG_OF_PERICENTER":"50.1589","TLE_LINE1":"1 51958U 22025C   22244.91667824  .00040380  00000-0  25420-2 0  9996","NORAD_CAT_ID":"51958","SEMIMAJOR_AXIS":"6917.936","MEAN_MOTION":"15.08821872","MEAN_ANOMALY":"114.6868","PERIOD":"95.439","EPHEMERIS_TYPE":"0","CENTER_NAME":"EARTH","APOAPSIS":"540.892","INCLINATION":"53.2175","EPOCH":"2022-09-01T22:00:00.999936","OBJECT_TYPE":"PAYLOAD","TIME_SYSTEM":"UTC","LAUNCH_DATE":"2022-03-09","GP_ID":"211504546","COUNTRY_CODE":"US","RA_OF_ASC_NODE":"36.7035","REF_FRAME":"TEME","MEAN_MOTION_DDOT":"0.0000000000000","TLE_LINE2":"2 51958  53.2175  36.7035 0001578  50.1589 114.6868 15.08821872  1306"},{"PERIOD":"95.439","EPHEMERIS_TYPE":"0","CENTER_NAME":"EARTH","APOAPSIS":"540.969","EPOCH":"2022-09-01T22:00:00.999936","INCLINATION":"53.2159","NORAD_CAT_ID":"51959","SEMIMAJOR_AXIS":"6917.962","MEAN_MOTION":"15.08813198","MEAN_ANOMALY":"165.8571","COUNTRY_CODE":"US","RA_OF_ASC_NODE":"36.6870","REF_FRAME":"TEME","MEAN_MOTION_DDOT":"0.0000000000000","TLE_LINE2":"2 51959  53.2159  36.6870 0001650  59.0114 165.8571 15.08813198  1309","OBJECT_TYPE":"PAYLOAD","TIME_SYSTEM":"UTC","LAUNCH_DATE":"2022-03-09","GP_ID":"211504796","ELEMENT_SET_NO":"999","CLASSIFICATION_TYPE":"U","BSTAR":"0.00233750000000","ECCENTRICITY":"0.00016500","RCS_SIZE":"LARGE","OBJECT_NAME":"STARLINK-3704","DECAY_DATE":null,"SITE":"AFETR","REV_AT_EPOCH":"130","TLE_LINE1":"1 51959U 22025D   22244.91667824  .00037082  00000-0  23375-2 0  9999","ARG_OF_PERICENTER":"59.0114","FILE":"3554009","MEAN_ELEMENT_THEORY":"SGP4","PERIAPSIS":"538.686","OBJECT_ID":"2022-025D","MEAN_MOTION_DOT":"0.00037082"},{"RA_OF_ASC_NODE":"36.6840","REF_FRAME":"TEME","COUNTRY_CODE":"US","MEAN_MOTION_DDOT":"0.0000000000000","TLE_LINE2":"2 51960  53.2173  36.6840 0001542  51.2501 213.5263 15.08820876  1308","OBJECT_TYPE":"PAYLOAD","LAUNCH_DATE":"2022-03-09","TIME_SYSTEM":"UTC","GP_ID":"211505047","PERIOD":"95.439","CENTER_NAME":"EARTH","EPHEMERIS_TYPE":"0","APOAPSIS":"540.871","INCLINATION":"53.2173","EPOCH":"2022-09-01T22:00:00.999936","NORAD_CAT_ID":"51960","SEMIMAJOR_AXIS":"6917.939","MEAN_ANOMALY":"213.5263","MEAN_MOTION":"15.08820876","OBJECT_NAME":"STARLINK-3691","DECAY_DATE":null,"ARG_OF_PERICENTER":"51.2501","TLE_LINE1":"1 51960U 22025E   22244.91667824  .00034141  00000-0  21540-2 0  9996","SITE":"AFETR","REV_AT_EPOCH":"130","PERIAPSIS":"538.737","MEAN_ELEMENT_THEORY":"SGP4","FILE":"3554009","MEAN_MOTION_DOT":"0.00034141","OBJECT_ID":"2022-025E","ELEMENT_SET_NO":"999","CLASSIFICATION_TYPE":"U","BSTAR":"0.00215400000000","ECCENTRICITY":"0.00015420","RCS_SIZE":"LARGE"}];
